[{"OBJECT_NAME":"KUIPER-00167","OBJECT_ID":"2025-217U","EPOCH":"2026-03-03T07:10:36.893568","MEAN_MOTION":14.79876642,"ECCENTRICITY":3.423e-5,"INCLINATION":51.8969,"RA_OF_ASC_NODE":73.8272,"ARG_OF_PERICENTER":27.1073,"MEAN_ANOMALY":332.9907,"EPHEMERIS_TYPE":0,"CLASSIFICATION_TYPE":"U","NORAD_CAT_ID":65780,"ELEMENT_SET_NO":999,"REV_AT_EPOCH":2389,"BSTAR":0.00068343334,"MEAN_MOTION_DOT":4.986e-5,"MEAN_MOTION_DDOT":0},{"OBJECT_NAME":"KUIPER-00168","OBJECT_ID":"2025-217V","EPOCH":"2026-03-03T04:23:07.845216","MEAN_MOTION":14.79931355,"ECCENTRICITY":8.948e-5,"INCLINATION":51.9013,"RA_OF_ASC_NODE":56.8725,"ARG_OF_PERICENTER":82.0309,"MEAN_ANOMALY":278.0755,"EPHEMERIS_TYPE":0,"CLASSIFICATION_TYPE":"U","NORAD_CAT_ID":65781,"ELEMENT_SET_NO":999,"REV_AT_EPOCH":2412,"BSTAR":7.4252856e-5,"MEAN_MOTION_DOT":3.45e-6,"MEAN_MOTION_DDOT":0},{"OBJECT_NAME":"KUIPER-00169","OBJECT_ID":"2025-217W","EPOCH":"2026-03-03T09:07:51.513312","MEAN_MOTION":14.79784099,"ECCENTRICITY":7.297e-5,"INCLINATION":51.9012,"RA_OF_ASC_NODE":61.0064,"ARG_OF_PERICENTER":93.2359,"MEAN_ANOMALY":266.8687,"EPHEMERIS_TYPE":0,"CLASSIFICATION_TYPE":"U","NORAD_CAT_ID":65782,"ELEMENT_SET_NO":999,"REV_AT_EPOCH":2408,"BSTAR":0.00072585303,"MEAN_MOTION_DOT":5.297e-5,"MEAN_MOTION_DDOT":0},{"OBJECT_NAME":"KUIPER-00170","OBJECT_ID":"2025-217X","EPOCH":"2026-03-03T08:58:49.086336","MEAN_MOTION":14.79924611,"ECCENTRICITY":7.719e-5,"INCLINATION":51.8987,"RA_OF_ASC_NODE":66.0117,"ARG_OF_PERICENTER":81.6557,"MEAN_ANOMALY":278.4493,"EPHEMERIS_TYPE":0,"CLASSIFICATION_TYPE":"U","NORAD_CAT_ID":65783,"ELEMENT_SET_NO":999,"REV_AT_EPOCH":2401,"BSTAR":0.00052720591,"MEAN_MOTION_DOT":3.799e-5,"MEAN_MOTION_DDOT":0},{"OBJECT_NAME":"KUIPER-00172","OBJECT_ID":"2025-217Z","EPOCH":"2026-03-03T18:00:01.999296","MEAN_MOTION":14.91461788,"ECCENTRICITY":0.0002049,"INCLINATION":51.8957,"RA_OF_ASC_NODE":45.242,"ARG_OF_PERICENTER":295.8664,"MEAN_ANOMALY":98.3418,"EPHEMERIS_TYPE":0,"CLASSIFICATION_TYPE":"U","NORAD_CAT_ID":65785,"ELEMENT_SET_NO":999,"REV_AT_EPOCH":282,"BSTAR":-0.16385,"MEAN_MOTION_DOT":-0.01524455,"MEAN_MOTION_DDOT":0},{"OBJECT_NAME":"KUIPER-00173","OBJECT_ID":"2025-217AA","EPOCH":"2026-03-03T09:58:46.128288","MEAN_MOTION":14.82255953,"ECCENTRICITY":0.00014086,"INCLINATION":51.9016,"RA_OF_ASC_NODE":60.1713,"ARG_OF_PERICENTER":131.7345,"MEAN_ANOMALY":228.3739,"EPHEMERIS_TYPE":0,"CLASSIFICATION_TYPE":"U","NORAD_CAT_ID":65786,"ELEMENT_SET_NO":999,"REV_AT_EPOCH":2409,"BSTAR":0.0002132429,"MEAN_MOTION_DOT":1.493e-5,"MEAN_MOTION_DDOT":0},{"OBJECT_NAME":"KUIPER-00174","OBJECT_ID":"2025-217AB","EPOCH":"2026-03-03T08:26:17.371680","MEAN_MOTION":14.79934879,"ECCENTRICITY":5.927e-5,"INCLINATION":51.9031,"RA_OF_ASC_NODE":56.1498,"ARG_OF_PERICENTER":80.6654,"MEAN_ANOMALY":279.4375,"EPHEMERIS_TYPE":0,"CLASSIFICATION_TYPE":"U","NORAD_CAT_ID":65787,"ELEMENT_SET_NO":999,"REV_AT_EPOCH":2414,"BSTAR":-0.0029428564,"MEAN_MOTION_DOT":-0.00022581,"MEAN_MOTION_DDOT":0},{"OBJECT_NAME":"KUIPER-00176","OBJECT_ID":"2025-217AC","EPOCH":"2026-03-03T09:39:58.635072","MEAN_MOTION":14.79983666,"ECCENTRICITY":8.849e-5,"INCLINATION":51.8995,"RA_OF_ASC_NODE":70.8988,"ARG_OF_PERICENTER":62.4412,"MEAN_ANOMALY":297.6641,"EPHEMERIS_TYPE":0,"CLASSIFICATION_TYPE":"U","NORAD_CAT_ID":65788,"ELEMENT_SET_NO":999,"REV_AT_EPOCH":2394,"BSTAR":0.00073000378,"MEAN_MOTION_DOT":5.355e-5,"MEAN_MOTION_DDOT":0},{"OBJECT_NAME":"KUIPER-00101","OBJECT_ID":"2025-228A","EPOCH":"2026-03-03T08:20:24.499392","MEAN_MOTION":14.79931306,"ECCENTRICITY":7.161e-5,"INCLINATION":51.8999,"RA_OF_ASC_NODE":28.6221,"ARG_OF_PERICENTER":113.0169,"MEAN_ANOMALY":247.0869,"EPHEMERIS_TYPE":0,"CLASSIFICATION_TYPE":"U","NORAD_CAT_ID":65947,"ELEMENT_SET_NO":999,"REV_AT_EPOCH":2229,"BSTAR":-0.0002971717,"MEAN_MOTION_DOT":-2.486e-5,"MEAN_MOTION_DDOT":0},{"OBJECT_NAME":"KUIPER-00113","OBJECT_ID":"2025-228B","EPOCH":"2026-03-03T02:47:49.024032","MEAN_MOTION":14.79953844,"ECCENTRICITY":8.406e-5,"INCLINATION":51.8994,"RA_OF_ASC_NODE":24.6611,"ARG_OF_PERICENTER":89.2903,"MEAN_ANOMALY":270.8156,"EPHEMERIS_TYPE":0,"CLASSIFICATION_TYPE":"U","NORAD_CAT_ID":65948,"ELEMENT_SET_NO":999,"REV_AT_EPOCH":2232,"BSTAR":0.00079853764,"MEAN_MOTION_DOT":5.875e-5,"MEAN_MOTION_DDOT":0},{"OBJECT_NAME":"KUIPER-00117","OBJECT_ID":"2025-228C","EPOCH":"2026-03-03T03:32:35.824704","MEAN_MOTION":14.79940698,"ECCENTRICITY":9.912e-5,"INCLINATION":51.8993,"RA_OF_ASC_NODE":27.0265,"ARG_OF_PERICENTER":79.1139,"MEAN_ANOMALY":280.9935,"EPHEMERIS_TYPE":0,"CLASSIFICATION_TYPE":"U","NORAD_CAT_ID":65949,"ELEMENT_SET_NO":999,"REV_AT_EPOCH":2229,"BSTAR":2.4521504e-5,"MEAN_MOTION_DOT":-3.4e-7,"MEAN_MOTION_DDOT":0},{"OBJECT_NAME":"KUIPER-00121","OBJECT_ID":"2025-228D","EPOCH":"2026-03-03T07:43:22.746720","MEAN_MOTION":14.79929635,"ECCENTRICITY":0.0001322,"INCLINATION":51.901,"RA_OF_ASC_NODE":21.2503,"ARG_OF_PERICENTER":99.5126,"MEAN_ANOMALY":260.5986,"EPHEMERIS_TYPE":0,"CLASSIFICATION_TYPE":"U","NORAD_CAT_ID":65950,"ELEMENT_SET_NO":999,"REV_AT_EPOCH":2239,"BSTAR":0.00087972485,"MEAN_MOTION_DOT":6.491e-5,"MEAN_MOTION_DDOT":0},{"OBJECT_NAME":"KUIPER-00122","OBJECT_ID":"2025-228E","EPOCH":"2026-03-03T02:34:21.801792","MEAN_MOTION":14.79810679,"ECCENTRICITY":9.732e-5,"INCLINATION":51.9015,"RA_OF_ASC_NODE":32.1635,"ARG_OF_PERICENTER":84.7942,"MEAN_ANOMALY":275.3132,"EPHEMERIS_TYPE":0,"CLASSIFICATION_TYPE":"U","NORAD_CAT_ID":65951,"ELEMENT_SET_NO":999,"REV_AT_EPOCH":2222,"BSTAR":-0.0017158037,"MEAN_MOTION_DOT":-0.00013237,"MEAN_MOTION_DDOT":0},{"OBJECT_NAME":"KUIPER-00123","OBJECT_ID":"2025-228F","EPOCH":"2026-03-03T05:02:18.450528","MEAN_MOTION":14.79937341,"ECCENTRICITY":0.00010314,"INCLINATION":51.8995,"RA_OF_ASC_NODE":31.7465,"ARG_OF_PERICENTER":91.7301,"MEAN_ANOMALY":268.3779,"EPHEMERIS_TYPE":0,"CLASSIFICATION_TYPE":"U","NORAD_CAT_ID":65952,"ELEMENT_SET_NO":999,"REV_AT_EPOCH":2223,"BSTAR":0.00084190835,"MEAN_MOTION_DOT":6.203e-5,"MEAN_MOTION_DDOT":0},{"OBJECT_NAME":"KUIPER-00124","OBJECT_ID":"2025-228G","EPOCH":"2026-03-03T01:59:13.393824","MEAN_MOTION":14.79938137,"ECCENTRICITY":0.00010776,"INCLINATION":51.8989,"RA_OF_ASC_NODE":24.7939,"ARG_OF_PERICENTER":102.0648,"MEAN_ANOMALY":258.0435,"EPHEMERIS_TYPE":0,"CLASSIFICATION_TYPE":"U","NORAD_CAT_ID":65953,"ELEMENT_SET_NO":999,"REV_AT_EPOCH":2232,"BSTAR":9.868982e-6,"MEAN_MOTION_DOT":-1.46e-6,"MEAN_MOTION_DDOT":0},{"OBJECT_NAME":"KUIPER-00125","OBJECT_ID":"2025-228H","EPOCH":"2026-03-03T05:37:00.603264","MEAN_MOTION":14.79912808,"ECCENTRICITY":9.606e-5,"INCLINATION":51.9019,"RA_OF_ASC_NODE":9.15,"ARG_OF_PERICENTER":107.9676,"MEAN_ANOMALY":252.1391,"EPHEMERIS_TYPE":0,"CLASSIFICATION_TYPE":"U","NORAD_CAT_ID":65954,"ELEMENT_SET_NO":999,"REV_AT_EPOCH":2255,"BSTAR":0.00091026031,"MEAN_MOTION_DOT":6.722e-5,"MEAN_MOTION_DDOT":0},{"OBJECT_NAME":"KUIPER-00126","OBJECT_ID":"2025-228J","EPOCH":"2026-03-03T02:40:05.024064","MEAN_MOTION":14.7994105,"ECCENTRICITY":0.00010217,"INCLINATION":51.8986,"RA_OF_ASC_NODE":29.6911,"ARG_OF_PERICENTER":99.6349,"MEAN_ANOMALY":260.4729,"EPHEMERIS_TYPE":0,"CLASSIFICATION_TYPE":"U","NORAD_CAT_ID":65955,"ELEMENT_SET_NO":999,"REV_AT_EPOCH":2225,"BSTAR":0.0003137441,"MEAN_MOTION_DOT":2.172e-5,"MEAN_MOTION_DDOT":0}]
